ALOS (DAICHI)           
1 28931U 06002A   26047.87511659  .00001383  00000+0  24026-3 0  9993
2 28931  98.1184   3.9409 0001784  57.6157 302.5221 14.69738562 70421
H-2A R/B                
1 28932U 06002B   26047.95227120  .00009744  00000+0  49414-3 0  9997
2 28932  98.2371 193.2061 0052296 312.6232  47.0594 15.15979036 91297
RESURS-DK 1             
1 29228U 06021A   26048.10220830  .00002708  00000+0  16075-3 0  9996
2 29228  69.9331 290.2762 0003616 190.6791 169.4299 15.12622011 84411
CZ-4B R/B               
1 29507U 06046C   26048.09232142  .00005401  00000+0  27564-3 0  9998
2 29507  97.5634  93.0551 0032845 341.7048  18.3001 15.16678546 56925
COSMO-SKYMED 1          
1 31598U 07023A   26048.20339984  .00004669  00000+0  41758-3 0  9998
2 31598  97.8856 239.0737 0001376  92.7284 267.4095 14.96369119 11847
KORONAS-FOTON           
1 33504U 09003A   26048.14223151  .00012960  00000+0  29499-3 0  9999
2 33504  82.4312 297.2308 0009365 224.6639 135.3854 15.42775101942572
CZ-2C R/B               
1 37731U 11030B   26047.87179814  .00001764  00000+0  22814-3 0  9997
2 37731  97.8510   5.5588 0054055  58.9165 358.5472 14.81138110787012
H-2A R/B                
1 38341U 12025E   26047.91429846  .00004996  00000+0  45401-3 0  9995
2 38341  98.4694  13.3067 0045359  22.8587 337.4637 14.94980017745113
SHIJIAN-16 (SJ-16)      
1 39358U 13057A   26048.18145355  .00001876  00000+0  18618-3 0  9994
2 39358  74.9698 223.9089 0016411 164.2887 195.8814 14.92262642668447
