CCSDS_OMM_VERS = 2.0
CREATION_DATE  = 
ORIGINATOR     = 

OBJECT_NAME    = ALOS (DAICHI)
OBJECT_ID      = 2006-002A
CENTER_NAME    = EARTH
REF_FRAME      = TEME
TIME_SYSTEM    = UTC
MEAN_ELEMENT_THEORY = SGP/SGP4

EPOCH          = 2026-02-16T21:00:10.073376
MEAN_MOTION    = 14.69738562
ECCENTRICITY   = .0001784
INCLINATION    = 98.1184
RA_OF_ASC_NODE = 3.9409
ARG_OF_PERICENTER = 57.6157
MEAN_ANOMALY   = 302.5221

EPHEMERIS_TYPE = 0
CLASSIFICATION_TYPE = U
NORAD_CAT_ID   = 28931
ELEMENT_SET_NO = 999
REV_AT_EPOCH   = 7042
BSTAR          = .24026E-3
MEAN_MOTION_DOT = .1383E-4
MEAN_MOTION_DDOT = 0

CCSDS_OMM_VERS = 2.0
CREATION_DATE  = 
ORIGINATOR     = 

OBJECT_NAME    = H-2A R/B
OBJECT_ID      = 2006-002B
CENTER_NAME    = EARTH
REF_FRAME      = TEME
TIME_SYSTEM    = UTC
MEAN_ELEMENT_THEORY = SGP/SGP4

EPOCH          = 2026-02-16T22:51:16.231680
MEAN_MOTION    = 15.15979036
ECCENTRICITY   = .0052296
INCLINATION    = 98.2371
RA_OF_ASC_NODE = 193.2061
ARG_OF_PERICENTER = 312.6232
MEAN_ANOMALY   = 47.0594

EPHEMERIS_TYPE = 0
CLASSIFICATION_TYPE = U
NORAD_CAT_ID   = 28932
ELEMENT_SET_NO = 999
REV_AT_EPOCH   = 9129
BSTAR          = .49414E-3
MEAN_MOTION_DOT = .9744E-4
MEAN_MOTION_DDOT = 0

CCSDS_OMM_VERS = 2.0
CREATION_DATE  = 
ORIGINATOR     = 

OBJECT_NAME    = RESURS-DK 1
OBJECT_ID      = 2006-021A
CENTER_NAME    = EARTH
REF_FRAME      = TEME
TIME_SYSTEM    = UTC
MEAN_ELEMENT_THEORY = SGP/SGP4

EPOCH          = 2026-02-17T02:27:10.797120
MEAN_MOTION    = 15.12622011
ECCENTRICITY   = .0003616
INCLINATION    = 69.9331
RA_OF_ASC_NODE = 290.2762
ARG_OF_PERICENTER = 190.6791
MEAN_ANOMALY   = 169.4299

EPHEMERIS_TYPE = 0
CLASSIFICATION_TYPE = U
NORAD_CAT_ID   = 29228
ELEMENT_SET_NO = 999
REV_AT_EPOCH   = 8441
BSTAR          = .16075E-3
MEAN_MOTION_DOT = .2708E-4
MEAN_MOTION_DDOT = 0

CCSDS_OMM_VERS = 2.0
CREATION_DATE  = 
ORIGINATOR     = 

OBJECT_NAME    = CZ-4B R/B
OBJECT_ID      = 2006-046C
CENTER_NAME    = EARTH
REF_FRAME      = TEME
TIME_SYSTEM    = UTC
MEAN_ELEMENT_THEORY = SGP/SGP4

EPOCH          = 2026-02-17T02:12:56.570688
MEAN_MOTION    = 15.16678546
ECCENTRICITY   = .0032845
INCLINATION    = 97.5634
RA_OF_ASC_NODE = 93.0551
ARG_OF_PERICENTER = 341.7048
MEAN_ANOMALY   = 18.3001

EPHEMERIS_TYPE = 0
CLASSIFICATION_TYPE = U
NORAD_CAT_ID   = 29507
ELEMENT_SET_NO = 999
REV_AT_EPOCH   = 5692
BSTAR          = .27564E-3
MEAN_MOTION_DOT = .5401E-4
MEAN_MOTION_DDOT = 0

CCSDS_OMM_VERS = 2.0
CREATION_DATE  = 
ORIGINATOR     = 

OBJECT_NAME    = COSMO-SKYMED 1
OBJECT_ID      = 2007-023A
CENTER_NAME    = EARTH
REF_FRAME      = TEME
TIME_SYSTEM    = UTC
MEAN_ELEMENT_THEORY = SGP/SGP4

EPOCH          = 2026-02-17T04:52:53.746176
MEAN_MOTION    = 14.96369119
ECCENTRICITY   = .0001376
INCLINATION    = 97.8856
RA_OF_ASC_NODE = 239.0737
ARG_OF_PERICENTER = 92.7284
MEAN_ANOMALY   = 267.4095

EPHEMERIS_TYPE = 0
CLASSIFICATION_TYPE = U
NORAD_CAT_ID   = 31598
ELEMENT_SET_NO = 999
REV_AT_EPOCH   = 1184
BSTAR          = .41758E-3
MEAN_MOTION_DOT = .4669E-4
MEAN_MOTION_DDOT = 0

CCSDS_OMM_VERS = 2.0
CREATION_DATE  = 
ORIGINATOR     = 

OBJECT_NAME    = KORONAS-FOTON
OBJECT_ID      = 2009-003A
CENTER_NAME    = EARTH
REF_FRAME      = TEME
TIME_SYSTEM    = UTC
MEAN_ELEMENT_THEORY = SGP/SGP4

EPOCH          = 2026-02-17T03:24:48.802464
MEAN_MOTION    = 15.42775101
ECCENTRICITY   = .0009365
INCLINATION    = 82.4312
RA_OF_ASC_NODE = 297.2308
ARG_OF_PERICENTER = 224.6639
MEAN_ANOMALY   = 135.3854

EPHEMERIS_TYPE = 0
CLASSIFICATION_TYPE = U
NORAD_CAT_ID   = 33504
ELEMENT_SET_NO = 999
REV_AT_EPOCH   = 94257
BSTAR          = .29499E-3
MEAN_MOTION_DOT = .1296E-3
MEAN_MOTION_DDOT = 0

CCSDS_OMM_VERS = 2.0
CREATION_DATE  = 
ORIGINATOR     = 

OBJECT_NAME    = CZ-2C R/B
OBJECT_ID      = 2011-030B
CENTER_NAME    = EARTH
REF_FRAME      = TEME
TIME_SYSTEM    = UTC
MEAN_ELEMENT_THEORY = SGP/SGP4

EPOCH          = 2026-02-16T20:55:23.359296
MEAN_MOTION    = 14.81138110
ECCENTRICITY   = .0054055
INCLINATION    = 97.8510
RA_OF_ASC_NODE = 5.5588
ARG_OF_PERICENTER = 58.9165
MEAN_ANOMALY   = 358.5472

EPHEMERIS_TYPE = 0
CLASSIFICATION_TYPE = U
NORAD_CAT_ID   = 37731
ELEMENT_SET_NO = 999
REV_AT_EPOCH   = 78701
BSTAR          = .22814E-3
MEAN_MOTION_DOT = .1764E-4
MEAN_MOTION_DDOT = 0

CCSDS_OMM_VERS = 2.0
CREATION_DATE  = 
ORIGINATOR     = 

OBJECT_NAME    = H-2A R/B
OBJECT_ID      = 2012-025E
CENTER_NAME    = EARTH
REF_FRAME      = TEME
TIME_SYSTEM    = UTC
MEAN_ELEMENT_THEORY = SGP/SGP4

EPOCH          = 2026-02-16T21:56:35.386944
MEAN_MOTION    = 14.94980017
ECCENTRICITY   = .0045359
INCLINATION    = 98.4694
RA_OF_ASC_NODE = 13.3067
ARG_OF_PERICENTER = 22.8587
MEAN_ANOMALY   = 337.4637

EPHEMERIS_TYPE = 0
CLASSIFICATION_TYPE = U
NORAD_CAT_ID   = 38341
ELEMENT_SET_NO = 999
REV_AT_EPOCH   = 74511
BSTAR          = .45401E-3
MEAN_MOTION_DOT = .4996E-4
MEAN_MOTION_DDOT = 0

CCSDS_OMM_VERS = 2.0
CREATION_DATE  = 
ORIGINATOR     = 

OBJECT_NAME    = SHIJIAN-16 (SJ-16)
OBJECT_ID      = 2013-057A
CENTER_NAME    = EARTH
REF_FRAME      = TEME
TIME_SYSTEM    = UTC
MEAN_ELEMENT_THEORY = SGP/SGP4

EPOCH          = 2026-02-17T04:21:17.586720
MEAN_MOTION    = 14.92262642
ECCENTRICITY   = .0016411
INCLINATION    = 74.9698
RA_OF_ASC_NODE = 223.9089
ARG_OF_PERICENTER = 164.2887
MEAN_ANOMALY   = 195.8814

EPHEMERIS_TYPE = 0
CLASSIFICATION_TYPE = U
NORAD_CAT_ID   = 39358
ELEMENT_SET_NO = 999
REV_AT_EPOCH   = 66844
BSTAR          = .18618E-3
MEAN_MOTION_DOT = .1876E-4
MEAN_MOTION_DDOT = 0

